LEMUR-2-AMANDA-SVANTE   
1 48269U 21034B   26068.77637527  .00030872  00000+0  11134-2 0  9996
2 48269  97.5829 144.8625 0002703 205.4721 154.6385 15.28469003265849
STARLINK-36095          
1 66871U 25281Z   26068.22834174  .00046695  00000+0  16952-2 0  9993
2 66871  43.0043 346.1916 0002338 259.0875 100.9714 15.27588294 16095
